NORAD_CAT_ID,OBJECT_NAME,OBJECT_TYPE,EPOCH,MEAN_MOTION,ECCENTRICITY,INCLINATION,RA_OF_ASC_NODE,ARG_OF_PERICENTER,MEAN_ANOMALY,BSTAR,MEAN_MOTION_DOT,MEAN_MOTION_DDOT,TLE_LINE0,TLE_LINE1,TLE_LINE2,SEMIMAJOR_AXIS,PERIOD,APOGEE,PERIGEE,DECAYED
55962.0,STARLINK-5906,PAYLOAD,2023-11-18 11:04:13,14.96743281,9.71e-05,70.0067,228.0822,283.5271,76.5779,-0.00061272,-7.102e-05,0.0,0 STARLINK-5906,1 55962U 23037BA  23322.46126597 -.00007102  00000-0 -61272-3 0  9997,2 55962  70.0067 228.0822 0000971 283.5271  76.5779 14.96743281 38656,6955.104,96.209,577.644,576.294,0.0
55962.0,STARLINK-5906,PAYLOAD,2023-11-18 17:29:10,14.96719009,0.0002377,70.0019,227.4111,272.4757,87.6129,-0.00018697,-2.231e-05,0.0,0 STARLINK-5906,1 55962U 23037BA  23322.72859749 -.00002231  00000-0 -18697-3 0  9999,2 55962  70.0019 227.4111 0002377 272.4757  87.6129 14.96719009 38692,6955.179,96.21,578.697,575.391,0.0
55962.0,STARLINK-5906,PAYLOAD,2023-11-19 11:07:47,14.96720264,0.0002194,70.001,225.5624,274.7207,85.3701,-9.6626e-05,-1.197e-05,0.0,0 STARLINK-5906,1 55962U 23037BA  23323.46374361 -.00001197  00000-0 -96626-4 0  9992,2 55962  70.0010 225.5624 0002194 274.7207  85.3701 14.96720264 38464,6955.175,96.21,578.566,575.514,0.0
55962.0,STARLINK-5906,PAYLOAD,2023-11-19 19:08:58,14.96715497,0.0002482,70.0003,224.7216,273.572,86.5154,3.7575e-05,3.39e-06,0.0,0 STARLINK-5906,1 55962U 23037BA  23323.79790200  .00000339  00000-0  37575-4 0  9995,2 55962  70.0003 224.7216 0002482 273.5720  86.5154 14.96715497 38851,6955.19,96.211,578.781,575.329,0.0
55962.0,STARLINK-5906,PAYLOAD,2023-11-19 22:21:27,14.96716801,0.0001968,70.0008,224.386,244.5125,115.5829,3.6995e-05,3.32e-06,0.0,0 STARLINK-5906,1 55962U 23037BA  23323.93156433  .00000332  00000-0  36995-4 0  9993,2 55962  70.0008 224.3860 0001968 244.5125 115.5829 14.96716801 38539,6955.186,96.211,578.42,575.682,0.0
55962.0,STARLINK-5906,PAYLOAD,2023-11-20 11:11:22,14.96711968,0.0001603,70.002,223.0428,289.5443,70.5541,-1.7317e-07,-9.3e-07,0.0,0 STARLINK-5906,1 55962U 23037BA  23324.46622812 -.00000093  00000-0 -17317-6 0  9996,2 55962  70.0020 223.0428 0001603 289.5443  70.5541 14.96711968 38953,6955.201,96.211,578.181,575.951,0.0
55962.0,STARLINK-5906,PAYLOAD,2023-11-20 22:25:01,14.96713663,0.0002479,70.0006,221.8658,270.4642,89.6232,4.6865e-06,-3.8e-07,0.0,0 STARLINK-5906,1 55962U 23037BA  23324.93404659 -.00000038  00000-0  46865-5 0  9992,2 55962  70.0006 221.8658 0002479 270.4642  89.6232 14.96713663 38682,6955.196,96.211,578.785,575.337,0.0
55962.0,STARLINK-5906,PAYLOAD,2023-11-21 03:13:44,14.96717729,0.0002335,70.0003,221.3611,269.2935,90.7955,9.4287e-06,1.6e-07,0.0,0 STARLINK-5906,1 55962U 23037BA  23325.13453968  .00000016  00000-0  94287-5 0  9998,2 55962  70.0003 221.3611 0002335 269.2935  90.7955 14.96717729 39059,6955.183,96.211,578.672,575.424,0.0
55962.0,STARLINK-5906,PAYLOAD,2023-11-21 20:52:21,14.96714063,0.0002397,70.0003,219.5125,272.1031,87.9852,-5.0011e-05,-6.64e-06,0.0,0 STARLINK-5906,1 55962U 23037BA  23325.86969527 -.00000664  00000-0 -50011-4 0  9998,2 55962  70.0003 219.5125 0002397 272.1031  87.9852 14.96714063 38822,6955.195,96.211,578.727,575.392,0.0
55962.0,STARLINK-5906,PAYLOAD,2023-11-22 03:17:18,14.96715249,0.000187,70.0003,218.8402,243.2738,116.8229,9.4507e-06,1.7e-07,0.0,0 STARLINK-5906,1 55962U 23037BA  23326.13702074  .00000017  00000-0  94507-5 0  9990,2 55962  70.0003 218.8402 0001870 243.2738 116.8229 14.96715249 39200,6955.191,96.211,578.356,575.755,0.0
55962.0,STARLINK-5906,PAYLOAD,2023-11-22 20:55:55,14.96720538,0.0002324,70.0001,216.991,269.6681,90.421,4.0654e-05,3.74e-06,0.0,0 STARLINK-5906,1 55962U 23037BA  23326.87216695  .00000374  00000-0  40654-4 0  9999,2 55962  70.0001 216.9910 0002324 269.6681  90.4210 14.96720538 38972,6955.174,96.21,578.656,575.423,0.0
55962.0,STARLINK-5906,PAYLOAD,2023-11-23 03:20:51,14.9672485,0.0002235,70.0001,216.3187,269.0982,90.992,0.00010214,1.078e-05,0.0,0 STARLINK-5906,1 55962U 23037BA  23327.13948941  .00001078  00000-0  10214-3 0  9995,2 55962  70.0001 216.3187 0002235 269.0982  90.9920 14.96724850 39358,6955.161,96.21,578.581,575.472,0.0
55962.0,STARLINK-5906,PAYLOAD,2023-11-23 19:23:16,14.96703792,0.0002341,70.003,214.6462,224.8931,135.2038,-5.935e-05,-7.7e-06,0.0,0 STARLINK-5906,1 55962U 23037BA  23327.80782765 -.00000770  00000-0 -59350-4 0  9994,2 55962  70.0030 214.6462 0002341 224.8931 135.2038 14.96703792 39454,6955.226,96.211,578.72,575.463,0.0
55962.0,STARLINK-5906,PAYLOAD,2023-11-23 22:35:45,14.96704298,0.0002455,69.9997,214.3031,257.7033,102.3851,-0.00011833,-1.445e-05,0.0,0 STARLINK-5906,1 55962U 23037BA  23327.94149317 -.00001445  00000-0 -11833-3 0  9992,2 55962  69.9997 214.3031 0002455 257.7033 102.3851 14.96704298 39131,6955.225,96.211,578.797,575.382,0.0
55962.0,STARLINK-5906,PAYLOAD,2023-11-24 01:48:13,14.96702622,0.0002364,70.0003,213.9685,248.1733,111.9174,-0.00013127,-1.593e-05,0.0,0 STARLINK-5906,1 55962U 23037BA  23328.07515905 -.00001593  00000-0 -13127-3 0  9999,2 55962  70.0003 213.9685 0002364 248.1733 111.9174 14.96702622 39157,6955.23,96.211,578.739,575.451,0.0
55962.0,STARLINK-5906,PAYLOAD,2023-11-24 19:26:50,14.96714259,0.0002654,69.9991,212.1161,263.429,96.6566,-0.00010537,-1.297e-05,0.0,0 STARLINK-5906,1 55962U 23037BA  23328.81030597 -.00001297  00000-0 -10537-3 0  9993,2 55962  69.9991 212.1161 0002654 263.4290  96.6566 14.96714259 39603,6955.194,96.211,578.905,575.213,0.0
55962.0,STARLINK-5906,PAYLOAD,2023-11-24 22:39:18,14.96713615,0.0002153,70.0009,211.7817,232.7537,127.3425,-4.5092e-05,-6.07e-06,0.0,0 STARLINK-5906,1 55962U 23037BA  23328.94396861 -.00000607  00000-0 -45092-4 0  9995,2 55962  70.0009 211.7817 0002153 232.7537 127.3425 14.96713615 39281,6955.196,96.211,578.558,575.563,0.0
55962.0,STARLINK-5906,PAYLOAD,2023-11-25 01:51:47,14.96708086,0.0002011,69.9999,211.4426,268.8364,91.2564,-9.9282e-05,-1.227e-05,0.0,0 STARLINK-5906,1 55962U 23037BA  23329.07763841 -.00001227  00000-0 -99282-4 0  9995,2 55962  69.9999 211.4426 0002011 268.8364  91.2564 14.96708086 39302,6955.213,96.211,578.477,575.679,0.0
55962.0,STARLINK-5906,PAYLOAD,2023-11-25 21:06:37,14.96727849,0.0002452,70.0018,209.43,213.2924,146.808,0.00024575,2.723e-05,0.0,0 STARLINK-5906,1 55962U 23037BA  23329.87960128  .00002723  00000-0  24575-3 0  9992,2 55962  70.0018 209.4300 0002452 213.2924 146.8080 14.96727849 39421,6955.152,96.21,578.722,575.311,0.0
55962.0,STARLINK-5906,PAYLOAD,2023-11-26 01:55:21,14.96716558,0.0001369,70.002,208.9273,256.6424,103.4581,0.0002943,3.279e-05,0.0,0 STARLINK-5906,1 55962U 23037BA  23330.08010496  .00003279  00000-0  29430-3 0  9993,2 55962  70.0020 208.9273 0001369 256.6424 103.4581 14.96716558 39799,6955.187,96.211,578.004,576.1,0.0
55962.0,STARLINK-5906,PAYLOAD,2023-11-26 19:33:59,14.96706999,0.0002031,70.0023,207.0798,253.4469,106.6466,-0.00017748,-2.122e-05,0.0,0 STARLINK-5906,1 55962U 23037BA  23330.81527385 -.00002122  00000-0 -17748-3 0  9991,2 55962  70.0023 207.0798 0002031 253.4469 106.6466 14.96706999 39903,6955.216,96.211,578.494,575.669,0.0
55962.0,STARLINK-5906,PAYLOAD,2023-11-26 21:10:13,14.96708117,0.0003364,70.0029,206.9122,192.8468,167.2605,-0.0001445,-1.745e-05,0.0,0 STARLINK-5906,1 55962U 23037BA  23330.88210168 -.00001745  00000-0 -14450-3 0  9993,2 55962  70.0029 206.9122 0003364 192.8468 167.2605 14.96708117 39578,6955.213,96.211,579.418,574.738,0.0
55962.0,STARLINK-5906,PAYLOAD,2023-11-27 01:59:02,14.96628163,0.0001627,70.0027,206.4076,227.2118,132.8903,-0.0010431,-0.00011982,0.0,0 STARLINK-5906,1 55962U 23037BA  23331.08266964 -.00011982  00000-0 -10431-2 0  9999,2 55962  70.0027 206.4076 0001627 227.2118 132.8903 14.96628163 39946,6955.461,96.216,578.457,576.194,0.0
55962.0,STARLINK-5906,PAYLOAD,2023-11-27 14:48:49,14.96718215,0.0002849,70.0032,205.0623,265.0243,95.059,8.2116e-05,8.49e-06,0.0,0 STARLINK-5906,1 55962U 23037BA  23331.61724045  .00000849  00000-0  82116-4 0  9996,2 55962  70.0032 205.0623 0002849 265.0243  95.0590 14.96718215 39682,6955.182,96.21,579.028,575.065,0.0
55962.0,STARLINK-5906,PAYLOAD,2023-11-27 18:01:09,14.96834162,0.0002393,70.0029,204.726,260.2367,99.8521,0.0011334,0.00012944,0.0,0 STARLINK-5906,1 55962U 23037BA  23331.75080606  .00012944  00000-0  11334-2 0  9990,2 55962  70.0029 204.7260 0002393 260.2367  99.8521 14.96834162 40047,6954.822,96.203,578.352,575.023,0.0
55962.0,STARLINK-5906,PAYLOAD,2023-11-27 21:13:32,14.96889004,0.0002702,70.003,204.3905,218.3443,141.7523,0.0018276,0.00020983,0.0,0 STARLINK-5906,1 55962U 23037BA  23331.88440571  .00020983  00000-0  18276-2 0  9999,2 55962  70.0030 204.3905 0002702 218.3443 141.7523 14.96889004 39721,6954.653,96.2,578.397,574.638,0.0
55962.0,STARLINK-5906,PAYLOAD,2023-11-28 02:02:05,14.97003217,0.0002063,70.0029,203.8849,248.6288,111.465,0.0029489,0.00034076,0.0,0 STARLINK-5906,1 55962U 23037BA  23332.08478201  .00034076  00000-0  29489-2 0  9999,2 55962  70.0029 203.8849 0002063 248.6288 111.4650 14.97003217 40095,6954.299,96.192,577.599,574.729,0.0
55962.0,STARLINK-5906,PAYLOAD,2023-11-28 14:51:49,14.9702552,0.0002768,70.0013,202.5382,260.748,99.3366,0.0031549,0.00036497,0.0,0 STARLINK-5906,1 55962U 23037BA  23332.61931914  .00036497  00000-0  31549-2 0  9992,2 55962  70.0013 202.5382 0002768 260.7480  99.3366 14.97025520 39836,6954.23,96.191,578.02,574.17,0.0
55962.0,STARLINK-5906,PAYLOAD,2023-11-28 19:39:55,14.97380552,0.0002296,70.0017,202.0339,237.9691,122.1245,0.0066911,0.00078693,0.0,0 STARLINK-5906,1 55962U 23037BA  23332.81939581  .00078693  00000-0  66911-2 0  9997,2 55962  70.0017 202.0339 0002296 237.9691 122.1245 14.97380552 40206,6953.131,96.168,576.592,573.399,0.0
55962.0,STARLINK-5906,PAYLOAD,2023-11-28 22:52:12,14.97470192,0.0003129,70.0019,201.6964,211.721,148.376,0.007436,0.00087784,0.0,0 STARLINK-5906,1 55962U 23037BA  23332.95292280  .00087784  00000-0  74360-2 0  9998,2 55962  70.0019 201.6964 0003129 211.7210 148.3760 14.97470192 39884,6952.853,96.162,576.894,572.543,0.0
